GLOBALSTAR M045         
1 25676U 99019A   24300.88377418 -.00000123  00000+0 -26072-3 0  9996
2 25676  51.9967 250.2279 0000832  72.3644 326.1920 12.27047994164752
GLOBALSTAR M019         
1 25677U 99019B   24300.93107301  .00000068  00000+0  16471-2 0  9992
2 25677  51.9910   4.0452 0001143 186.1292 344.8915 12.13866068156813
GLOBALSTAR M044         
1 25678U 99019C   24300.74663112 -.00000020  00000+0  88982-3 0  9995
2 25678  51.9967 286.7157 0006493 314.3123 216.8915 11.90245065143522
GLOBALSTAR M042         
1 25679U 99019D   24300.57318359 -.00000026  00000+0  62189-3 0  9994
2 25679  52.0041 350.4474 0003032 170.0491 337.6009 12.22071455156694
GLOBALSTAR M025         
1 25770U 99031A   24300.85605133 -.00000035  00000+0  10005-2 0  9999
2 25770  51.9847 339.8006 0001669 113.7578  56.4807 11.22554985455501
GLOBALSTAR M049         
1 25771U 99031B   24300.92564545 -.00000079  00000+0 -48936-3 0  9993
2 25771  51.9917   2.6780 0002858 351.4971   8.5776 11.12111958 91476
GLOBALSTAR M047         
1 25772U 99031C   24300.92852620 -.00000048  00000+0  59760-3 0  9990
2 25772  51.9871  21.9246 0016284 220.4834 139.4761 11.31924326444694
GLOBALSTAR M052         
1 25773U 99031D   24300.81295652 -.00000082  00000+0 -53767-3 0  9995
2 25773  51.9831 114.8891 0003351 128.5890  10.1701 11.15054886452471
